IRIDIUM 26              
1 24903U 97043A   25167.55946757  .00000357  00000+0  11339-3 0  9994
2 24903  86.3955 110.8865 0002486  85.9833 274.1648 14.37145891457125
IRIDIUM 22              
1 24907U 97043E   25168.11592550  .00000328  00000+0  10642-3 0  9993
2 24907  86.3959 114.1919 0002315  84.1082 276.0379 14.35958877456752
DUMMY MASS 1            
1 24925U 97048A   25167.94614145  .00000393  00000+0  40681-4 0  9992
2 24925  86.3350 135.4406 0008242 132.9761 227.2156 14.86986644505334
DUMMY MASS 2            
1 24926U 97048B   25168.17746852  .00000397  00000+0  41475-4 0  9996
2 24926  86.3351 136.9405 0008618 143.1346 217.0472 14.86739001505141
IRIDIUM 29              
1 24944U 97051A   25168.34785856  .00000414  00000+0  13458-3 0  9995
2 24944  86.3966 143.8300 0002091  86.7521 273.3915 14.36468650453514
IRIDIUM 33              
1 24946U 97051C   25168.32985668  .00000313  00000+0  10333-3 0  9995
2 24946  86.3881 143.0977 0010099  80.4252 279.8085 14.34893136452778
IRIDIUM 28              
1 24948U 97051E   25167.62538380  .00000327  00000+0  10286-3 0  9996
2 24948  86.3970 141.6500 0002794  87.8706 272.2811 14.37386277453763
IRIDIUM 36              
1 24967U 97056C   25168.00644068  .00000355  00000+0  11189-3 0  9990
2 24967  86.3986 173.0735 0002430  83.5159 276.6315 14.37610315452198
